HST                     
1 20580U 90037B   26195.45743294  .00003622  00000+0  10984-3 0  9992
2 20580  28.4724 254.1506 0002218  96.5348 263.5501 15.31056727792754
POLAR                   
1 23802U 96013A   26194.99528213  .00000215  00000+0  00000+0 0  9991
2 23802  79.8899 226.7339 6497314 208.1555  91.6174  1.29846071145207
SWAS                    
1 25560U 98071A   26195.38013771  .00001617  00000+0  10646-3 0  9990
2 25560  69.8939 157.3858 0008001 231.4104 128.6344 15.09744124501376
CXO                     
1 25867U 99040B   26198.46886809  .00000598  00000+0  00000+0 0  9995
2 25867  56.6226 115.7943 7787022 310.0504   0.5333  0.37805709 17431
XMM-NEWTON              
1 25989U 99066A   26197.27126138  .00000020  00000+0  00000+0 0  9998
2 25989  64.3306 282.6120 4665766  64.4091   0.1022  0.50127411 23148
TERRA                   
1 25994U 99068A   26195.62614433  .00000188  00000+0  47265-4 0  9997
2 25994  97.9442 244.0824 0003387 123.7802 352.1206 14.61123443413617
CLUSTER II-FM7 (SAMBA)  
1 26410U 00041A   26192.68021872  .00012833  00000+0  00000+0 0  9997
2 26410 149.8437  55.3938 9082311 272.8334 359.6328  0.44896530 20420
CLUSTER II-FM8 (TANGO)  
1 26464U 00045B   26193.20090759  .00013276  00000+0  00000+0 0  9991
2 26464 150.0466  56.7498 9087829 274.0539   2.1034  0.44428696 20429
ODIN                    
1 26702U 01007A   26195.61368094  .00278852  30205-4  97817-3 0  9996
2 26702  97.3736 238.5522 0005132 154.7037 205.4488 15.89188235393735
TIMED                   
1 26998U 01055B   26195.37182817  .00000553  00000+0  53721-4 0  9999
2 26998  74.0665 180.2799 0002220 301.5234  58.5733 14.95343591334885
CORIOLIS                
1 27640U 03001A   26195.60802488  .00000044  00000+0  41076-4 0  9991
2 27640  98.7134 202.0746 0014891 130.7545 229.4927 14.19951709218116
SORCE                   
1 27651U 03004A   26194.17261998  .00001531  00000+0  11990-3 0  9995
2 27651  39.9908 113.4042 0018576 240.8928 119.0006 15.03836025275819
MOST                    
1 27843U 03031D   26195.59558525  .00000016  00000+0  27460-4 0  9997
2 27843  98.7053 202.9395 0010051 166.7190 193.4254 14.21327619194609
SCISAT 1                
1 27858U 03036A   26195.50733103  .00000283  00000+0  40810-4 0  9996
2 27858  73.9301 117.0616 0007401 185.3100 174.7999 14.81478511235496
SWIFT                   
1 28485U 04047A   26195.51335693  .00043330  00000+0  31959-3 0  9992
2 28485  20.5530 333.6864 0002053  17.5678 342.4839 15.71113940191164
HINODE (SOLAR-B)        
1 29479U 06041A   26195.57407364  .00000302  00000+0  60320-4 0  9990
2 29479  98.0549 211.3229 0016980 196.4538 163.6118 14.68657800 58899
SHIJIAN-6 02A (SJ-6 02A)
1 29505U 06046A   26195.59570271  .00005869  00000+0  29833-3 0  9991
2 29505  97.6344 236.8711 0004299  63.7736 296.3938 15.17245369 76422
SHIJIAN-6 02B (SJ-6 02B)
1 29506U 06046B   26195.60436233  .00000774  00000+0  64557-4 0  9996
2 29506  97.7147 224.4932 0013476 338.4122  21.6532 15.01437930 74855
FGRST (GLAST)           
1 33053U 08029A   26194.87715061  .00002161  00000+0  73017-4 0  9991
2 33053  25.5829  19.1417 0007749 283.0885  76.8788 15.24072309999915
SDO                     
1 36395U 10005A   26195.27947453 -.00000106  00000+0  00000+0 0  9992
2 36395  34.7062  85.9305 0001959  51.0470 153.5206  1.00277077 60336
CRYOSAT 2               
1 36508U 10013A   26195.58066212  .00000126  00000+0  30490-4 0  9998
2 36508  92.0359 283.9612 0002384  98.5706 261.5771 14.51898240862057
X-SAT                   
1 37389U 11015C   26195.60554720 -.00000053  00000+0 -47872-5 0  9992
2 37389  98.3520 171.3252 0012709 262.8743  97.0992 14.25213552791587
GCOM-W1 (SHIZUKU)       
1 38337U 12025A   26195.59037244  .00000200  00000+0  54455-4 0  9999
2 38337  98.2024 135.7317 0001325  77.8894  95.0617 14.57089859753023
NUSTAR                  
1 38358U 12031A   26195.66668981  .00005744  00000+0  29932-3 0  9994
2 38358   6.0257 187.9750 0007601 169.0023 200.4247 15.09042580  1308
NEOSSAT                 
1 39089U 13009D   26195.45687139  .00000058  00000+0  34915-4 0  9996
2 39089  98.4189  14.8427 0011412 159.3934 200.7715 14.35835508700651
BRITE-AUSTRIA           
1 39091U 13009F   26195.44191914  .00000082  00000+0  42362-4 0  9991
2 39091  98.4007  14.2048 0010722 152.8336 207.3414 14.36552341700968
IRIS                    
1 39197U 13033A   26195.50489391  .00000509  00000+0  64465-4 0  9993
2 39197  97.9319  34.6959 0023280 227.3924 132.5328 14.85936126704436
HISAKI (SPRINT-A)       
1 39253U 13049A   26195.37845452  .00000081  00000+0  18458-4 0  9998
2 39253  29.7209  81.7649 0136952 237.2707 121.4597 13.55546668635116
CASSIOPE                
1 39265U 13055A   26195.62824009  .00021084 -53073-6  22613-3 0  9990
2 39265  80.9126  33.3315 0282916 329.8056  28.7121 15.27398399671856
STSAT-3                 
1 39422U 13066G   26195.61151309  .00001194  00000+0  93445-4 0  9998
2 39422  97.6187 165.0571 0008931 307.7574  52.2841 15.02882819688322
